[{"OBJECT_NAME":"STARLINK-35721","OBJECT_ID":"2025-294S","EPOCH":"2026-03-09T22:18:09.310752","MEAN_MOTION":15.2759165,"ECCENTRICITY":6.833e-5,"INCLINATION":42.9958,"RA_OF_ASC_NODE":36.903,"ARG_OF_PERICENTER":147.3179,"MEAN_ANOMALY":212.7715,"EPHEMERIS_TYPE":0,"CLASSIFICATION_TYPE":"U","NORAD_CAT_ID":67046,"ELEMENT_SET_NO":999,"REV_AT_EPOCH":1483,"BSTAR":0.00099268294,"MEAN_MOTION_DOT":0.00027165,"MEAN_MOTION_DDOT":0},{"OBJECT_NAME":"CZ-6A DEB","OBJECT_ID":"2022-151DE","EPOCH":"2026-03-09T09:45:43.657920","MEAN_MOTION":15.34292219,"ECCENTRICITY":0.00393756,"INCLINATION":99.0022,"RA_OF_ASC_NODE":218.5596,"ARG_OF_PERICENTER":192.6197,"MEAN_ANOMALY":167.4059,"EPHEMERIS_TYPE":0,"CLASSIFICATION_TYPE":"U","NORAD_CAT_ID":54359,"ELEMENT_SET_NO":999,"REV_AT_EPOCH":10560,"BSTAR":0.0065240017,"MEAN_MOTION_DOT":0.00228186,"MEAN_MOTION_DDOT":0}]
